{
  "type": "FeatureCollection",
  "features": [
    {
      "type": "Feature",
      "properties": {
        "norad_id": 32192,
        "name": "FENGYUN 1C DEB",
        "group": "fengyun-1c-debris",
        "lat": 6.9033365161603015,
        "lon": -142.79265088763114,
        "alt_km": 1075.5483699240604,
        "timestamp": "2025-12-13T10:41:26.052073+00:00",
        "meta_object_name": "FENGYUN 1C DEB",
        "meta_object_id": "1999-025CUN",
        "meta_epoch": "2025-12-10T02:45:21.500352",
        "meta_mean_motion": 13.82509568,
        "meta_eccentricity": 0.01815944,
        "meta_inclination": 98.6529,
        "meta_ra_of_asc_node": 215.2024,
        "meta_arg_of_pericenter": 169.561,
        "meta_mean_anomaly": 190.9397,
        "meta_ephemeris_type": 0,
        "meta_classification_type": "U",
        "meta_norad_cat_id": 32192,
        "meta_element_set_no": 999,
        "meta_rev_at_epoch": 92676,
        "meta_bstar": 0.00038665557,
        "meta_mean_motion_dot": 4.37e-06,
        "meta_mean_motion_ddot": 0,
        "tle_line1": "1 32192U 99025CUN 25344.11483218  .00000437  00000+0  38666-3 0  9993",
        "tle_line2": "2 32192  98.6529 215.2024 0181594 169.5610 190.9397 13.82509568926765"
      },
      "geometry": {
        "type": "Point",
        "coordinates": [
          -142.79265088763114,
          6.9033365161603015
        ]
      }
    },
    {
      "type": "Feature",
      "properties": {
        "norad_id": 32195,
        "name": "FENGYUN 1C DEB",
        "group": "fengyun-1c-debris",
        "lat": -22.874851591731723,
        "lon": -6.427114308558178,
        "alt_km": 830.7311435558895,
        "timestamp": "2025-12-13T10:41:26.052084+00:00",
        "meta_object_name": "FENGYUN 1C DEB",
        "meta_object_id": "1999-025CUR",
        "meta_epoch": "2025-12-04T06:51:46.584576",
        "meta_mean_motion": 14.08440247,
        "meta_eccentricity": 0.0068891,
        "meta_inclination": 98.773,
        "meta_ra_of_asc_node": 340.9294,
        "meta_arg_of_pericenter": 324.3515,
        "meta_mean_anomaly": 35.3064,
        "meta_ephemeris_type": 0,
        "meta_classification_type": "U",
        "meta_norad_cat_id": 32195,
        "meta_element_set_no": 999,
        "meta_rev_at_epoch": 63863,
        "meta_bstar": 0.0010039,
        "meta_mean_motion_dot": 1.715e-05,
        "meta_mean_motion_ddot": 0,
        "tle_line1": "1 32195U 99025CUR 25338.28595584  .00001715  00000+0  10039-2 0  9990",
        "tle_line2": "2 32195  98.7730 340.9294 0068891 324.3515  35.3064 14.08440247638633"
      },
      "geometry": {
        "type": "Point",
        "coordinates": [
          -6.427114308558178,
          -22.874851591731723
        ]
      }
    },
    {
      "type": "Feature",
      "properties": {
        "norad_id": 32197,
        "name": "FENGYUN 1C DEB",
        "group": "fengyun-1c-debris",
        "lat": 22.420076479246976,
        "lon": 80.25158817433841,
        "alt_km": 742.5992809227982,
        "timestamp": "2025-12-13T10:41:26.052108+00:00",
        "meta_object_name": "FENGYUN 1C DEB",
        "meta_object_id": "1999-025CUT",
        "meta_epoch": "2025-12-10T12:24:38.958912",
        "meta_mean_motion": 14.32658071,
        "meta_eccentricity": 0.01611781,
        "meta_inclination": 98.901,
        "meta_ra_of_asc_node": 253.5369,
        "meta_arg_of_pericenter": 236.4218,
        "meta_mean_anomaly": 307.9774,
        "meta_ephemeris_type": 0,
        "meta_classification_type": "U",
        "meta_norad_cat_id": 32197,
        "meta_element_set_no": 999,
        "meta_rev_at_epoch": 94391,
        "meta_bstar": 0.0006387504,
        "meta_mean_motion_dot": 1.954e-05,
        "meta_mean_motion_ddot": 0,
        "tle_line1": "1 32197U 99025CUT 25344.51711758  .00001954  00000+0  63875-3 0  9990",
        "tle_line2": "2 32197  98.9010 253.5369 0161178 236.4218 307.9774 14.32658071943914"
      },
      "geometry": {
        "type": "Point",
        "coordinates": [
          80.25158817433841,
          22.420076479246976
        ]
      }
    },
    {
      "type": "Feature",
      "properties": {
        "norad_id": 32198,
        "name": "FENGYUN 1C DEB",
        "group": "fengyun-1c-debris",
        "lat": 74.84652246156206,
        "lon": -12.911064609782382,
        "alt_km": 923.9921919133885,
        "timestamp": "2025-12-13T10:41:26.052122+00:00",
        "meta_object_name": "FENGYUN 1C DEB",
        "meta_object_id": "1999-025CUU",
        "meta_epoch": "2025-12-11T03:39:24.233184",
        "meta_mean_motion": 14.08810013,
        "meta_eccentricity": 0.00944941,
        "meta_inclination": 98.343,
        "meta_ra_of_asc_node": 132.1567,
        "meta_arg_of_pericenter": 297.2193,
        "meta_mean_anomaly": 61.9373,
        "meta_ephemeris_type": 0,
        "meta_classification_type": "U",
        "meta_norad_cat_id": 32198,
        "meta_element_set_no": 999,
        "meta_rev_at_epoch": 56923,
        "meta_bstar": 0.0023788131,
        "meta_mean_motion_dot": 4.239e-05,
        "meta_mean_motion_ddot": 0,
        "tle_line1": "1 32198U 99025CUU 25345.15236381  .00004239  00000+0  23788-2 0  9993",
        "tle_line2": "2 32198  98.3430 132.1567 0094494 297.2193  61.9373 14.08810013569230"
      },
      "geometry": {
        "type": "Point",
        "coordinates": [
          -12.911064609782382,
          74.84652246156206
        ]
      }
    },
    {
      "type": "Feature",
      "properties": {
        "norad_id": 32200,
        "name": "FENGYUN 1C DEB",
        "group": "fengyun-1c-debris",
        "lat": 32.323422300692314,
        "lon": 30.788244393461568,
        "alt_km": 845.2772290589164,
        "timestamp": "2025-12-13T10:41:26.052133+00:00",
        "meta_object_name": "FENGYUN 1C DEB",
        "meta_object_id": "1999-025CUW",
        "meta_epoch": "2025-12-12T14:10:54.235200",
        "meta_mean_motion": 14.15698368,
        "meta_eccentricity": 0.0039559,
        "meta_inclination": 98.7917,
        "meta_ra_of_asc_node": 35.565,
        "meta_arg_of_pericenter": 290.2112,
        "meta_mean_anomaly": 69.481,
        "meta_ephemeris_type": 0,
        "meta_classification_type": "U",
        "meta_norad_cat_id": 32200,
        "meta_element_set_no": 999,
        "meta_rev_at_epoch": 94361,
        "meta_bstar": 0.0015422148,
        "meta_mean_motion_dot": 3.004e-05,
        "meta_mean_motion_ddot": 0,
        "tle_line1": "1 32200U 99025CUW 25346.59090550  .00003004  00000+0  15422-2 0  9997",
        "tle_line2": "2 32200  98.7917  35.5650 0039559 290.2112  69.4810 14.15698368943614"
      },
      "geometry": {
        "type": "Point",
        "coordinates": [
          30.788244393461568,
          32.323422300692314
        ]
      }
    },
    {
      "type": "Feature",
      "properties": {
        "norad_id": 32203,
        "name": "FENGYUN 1C DEB",
        "group": "fengyun-1c-debris",
        "lat": 34.36873704003082,
        "lon": 63.73346793727768,
        "alt_km": 385.3520364414726,
        "timestamp": "2025-12-13T10:41:26.052143+00:00",
        "meta_object_name": "FENGYUN 1C DEB",
        "meta_object_id": "1999-025CUZ",
        "meta_epoch": "2025-12-11T15:59:24.501120",
        "meta_mean_motion": 15.40648502,
        "meta_eccentricity": 0.014509,
        "meta_inclination": 97.0168,
        "meta_ra_of_asc_node": 237.1923,
        "meta_arg_of_pericenter": 95.6941,
        "meta_mean_anomaly": 266.0871,
        "meta_ephemeris_type": 0,
        "meta_classification_type": "U",
        "meta_norad_cat_id": 32203,
        "meta_element_set_no": 999,
        "meta_rev_at_epoch": 75081,
        "meta_bstar": 0.00090879586,
        "meta_mean_motion_dot": 0.00054284,
        "meta_mean_motion_ddot": 0,
        "tle_line1": "1 32203U 99025CUZ 25345.66625580  .00054284  00000+0  90880-3 0  9992",
        "tle_line2": "2 32203  97.0168 237.1923 0145090  95.6941 266.0871 15.40648502750819"
      },
      "geometry": {
        "type": "Point",
        "coordinates": [
          63.73346793727768,
          34.36873704003082
        ]
      }
    },
    {
      "type": "Feature",
      "properties": {
        "norad_id": 32205,
        "name": "FENGYUN 1C DEB",
        "group": "fengyun-1c-debris",
        "lat": 0.9233463589525389,
        "lon": -8.816988208925261,
        "alt_km": 846.4123105706067,
        "timestamp": "2025-12-13T10:41:26.052154+00:00",
        "meta_object_name": "FENGYUN 1C DEB",
        "meta_object_id": "1999-025CVB",
        "meta_epoch": "2025-12-12T18:31:12.058176",
        "meta_mean_motion": 14.13911373,
        "meta_eccentricity": 0.00100512,
        "meta_inclination": 98.6781,
        "meta_ra_of_asc_node": 350.67,
        "meta_arg_of_pericenter": 292.1251,
        "meta_mean_anomaly": 241.1802,
        "meta_ephemeris_type": 0,
        "meta_classification_type": "U",
        "meta_norad_cat_id": 32205,
        "meta_element_set_no": 999,
        "meta_rev_at_epoch": 94498,
        "meta_bstar": 0.00025703103,
        "meta_mean_motion_dot": 4.45e-06,
        "meta_mean_motion_ddot": 0,
        "tle_line1": "1 32205U 99025CVB 25346.77166734  .00000445  00000+0  25703-3 0  9990",
        "tle_line2": "2 32205  98.6781 350.6700 0010051 292.1251 241.1802 14.13911373944988"
      },
      "geometry": {
        "type": "Point",
        "coordinates": [
          -8.816988208925261,
          0.9233463589525389
        ]
      }
    }
  ]
}